[{"OBJECT_NAME":"STARLINK-3073","OBJECT_ID":"2021-082F","EPOCH":"2026-03-09T21:19:47.026272","MEAN_MOTION":14.98332652,"ECCENTRICITY":0.00020178,"INCLINATION":69.9986,"RA_OF_ASC_NODE":253.9333,"ARG_OF_PERICENTER":293.2771,"MEAN_ANOMALY":66.8175,"EPHEMERIS_TYPE":0,"CLASSIFICATION_TYPE":"U","NORAD_CAT_ID":49135,"ELEMENT_SET_NO":999,"REV_AT_EPOCH":24700,"BSTAR":4.3012385e-5,"MEAN_MOTION_DOT":4.2e-6,"MEAN_MOTION_DDOT":0},{"OBJECT_NAME":"GNOMES-5","OBJECT_ID":"2024-149DL","EPOCH":"2026-03-09T22:53:01.372704","MEAN_MOTION":15.00280005,"ECCENTRICITY":0.00076217,"INCLINATION":97.6857,"RA_OF_ASC_NODE":148.0235,"ARG_OF_PERICENTER":89.6268,"MEAN_ANOMALY":270.5829,"EPHEMERIS_TYPE":0,"CLASSIFICATION_TYPE":"U","NORAD_CAT_ID":60574,"ELEMENT_SET_NO":999,"REV_AT_EPOCH":8527,"BSTAR":0.00047414566,"MEAN_MOTION_DOT":5.885e-5,"MEAN_MOTION_DDOT":0}]
